ONEWEB-0012             
1 44057U 19010A   25318.25776816  .00000212  00000+0  52098-3 0  9993
2 44057  87.9002 271.5974 0001590  91.4027 268.7286 13.16592946323284
ONEWEB-0010             
1 44058U 19010B   25318.28310670  .00000018  00000+0  13480-4 0  9996
2 44058  87.9009 271.5795 0002246  81.1763 278.9622 13.16589172323335
ONEWEB-0008             
1 44059U 19010C   25318.30844658  .00000077  00000+0  16757-3 0  9992
2 44059  87.9012 271.5711 0001751  75.4272 284.7053 13.16593576323458
ONEWEB-0007             
1 44060U 19010D   25318.02071707 -.00012396  00000+0 -32977-1 0  9999
2 44060  87.8945 302.1653 0001570  95.9399 264.1911 13.15608239323082
ONEWEB-0006             
1 44061U 19010E   25318.02471406  .00000163  00000+0  39826-3 0  9999
2 44061  87.8972 302.1085 0002092  90.0405 270.0965 13.15548674323133
ONEWEB-0011             
1 44062U 19010F   25317.91694459 -.00000074  00000+0 -23110-3 0  9994
2 44062  87.8951 302.1409 0001999  79.8361 280.2995 13.15546712323117
ONEWEB-0013             
1 45131U 20008A   25318.30126086  .00000778  00000+0  22235-2 0  9996
2 45131  87.8483  96.2207 0001387 136.6535 223.4701 13.09437384277948
ONEWEB-0017             
1 45132U 20008B   25318.28242401 -.00000427  00000+0 -12592-2 0  9992
2 45132  87.8795  79.1141 0001744  97.2124 262.9201 13.10372738279808
ONEWEB-0020             
1 45133U 20008C   25318.32891825  .00000730  00000+0  20548-2 0  9993
2 45133  87.8803  79.0898 0001458  94.4382 265.6911 13.10374652280205
ONEWEB-0021             
1 45134U 20008D   25318.26750213  .00000318  00000+0  87339-3 0  9996
2 45134  87.8791  79.1336 0001609 104.5068 255.6238 13.10371732280502
ONEWEB-0023             
1 45136U 20008F   25318.27827834 -.00000197  00000+0 -60053-3 0  9994
2 45136  87.8787  79.1131 0001311 102.8352 257.2922 13.10370890279936
ONEWEB-0024             
1 45137U 20008G   25317.79276151  .00000723  00000+0  20352-2 0  9991
2 45137  87.8813  79.1737 0001617 100.2411 259.8899 13.10374421280034
ONEWEB-0025             
1 45138U 20008H   25318.26832409  .00000320  00000+0  87996-3 0  9990
2 45138  87.8802  79.0857 0001453 114.0974 246.0305 13.10370155280423
ONEWEB-0026             
1 45139U 20008J   25318.30685165  .00000038  00000+0  71068-4 0  9991
2 45139  87.8868  63.8541 0001747  97.5999 262.5327 13.11414022282944
ONEWEB-0028             
1 45140U 20008K   25318.26360932 -.00000504  00000+0 -14572-2 0  9995
2 45140  87.8859  63.8792 0001514 127.4137 232.7129 13.11418361280456
ONEWEB-0032             
1 45141U 20008L   25318.28407458 -.00000477  00000+0 -14030-2 0  9991
2 45141  87.8791  79.1131 0001482 107.2254 252.9036 13.10373136280156
