[{"OBJECT_NAME":"ONEWEB-0012","OBJECT_ID":"2019-010A","EPOCH":"2025-11-14T06:11:11.169024","MEAN_MOTION":13.16592946,"ECCENTRICITY":0.00015906,"INCLINATION":87.9002,"RA_OF_ASC_NODE":271.5974,"ARG_OF_PERICENTER":91.4027,"MEAN_ANOMALY":268.7286,"EPHEMERIS_TYPE":0,"CLASSIFICATION_TYPE":"U","NORAD_CAT_ID":44057,"ELEMENT_SET_NO":999,"REV_AT_EPOCH":32328,"BSTAR":0.00052098036,"MEAN_MOTION_DOT":2.12e-6,"MEAN_MOTION_DDOT":0},{"OBJECT_NAME":"ONEWEB-0010","OBJECT_ID":"2019-010B","EPOCH":"2025-11-14T06:47:40.418880","MEAN_MOTION":13.16589172,"ECCENTRICITY":0.00022464,"INCLINATION":87.9009,"RA_OF_ASC_NODE":271.5795,"ARG_OF_PERICENTER":81.1763,"MEAN_ANOMALY":278.9622,"EPHEMERIS_TYPE":0,"CLASSIFICATION_TYPE":"U","NORAD_CAT_ID":44058,"ELEMENT_SET_NO":999,"REV_AT_EPOCH":32333,"BSTAR":1.3479835e-5,"MEAN_MOTION_DOT":1.8e-7,"MEAN_MOTION_DDOT":0},{"OBJECT_NAME":"ONEWEB-0008","OBJECT_ID":"2019-010C","EPOCH":"2025-11-14T07:24:09.784512","MEAN_MOTION":13.16593576,"ECCENTRICITY":0.00017514,"INCLINATION":87.9012,"RA_OF_ASC_NODE":271.5711,"ARG_OF_PERICENTER":75.4272,"MEAN_ANOMALY":284.7053,"EPHEMERIS_TYPE":0,"CLASSIFICATION_TYPE":"U","NORAD_CAT_ID":44059,"ELEMENT_SET_NO":999,"REV_AT_EPOCH":32345,"BSTAR":0.00016757349,"MEAN_MOTION_DOT":7.7e-7,"MEAN_MOTION_DDOT":0},{"OBJECT_NAME":"ONEWEB-0007","OBJECT_ID":"2019-010D","EPOCH":"2025-11-14T00:29:49.954848","MEAN_MOTION":13.15608239,"ECCENTRICITY":0.00015708,"INCLINATION":87.8945,"RA_OF_ASC_NODE":302.1653,"ARG_OF_PERICENTER":95.9399,"MEAN_ANOMALY":264.1911,"EPHEMERIS_TYPE":0,"CLASSIFICATION_TYPE":"U","NORAD_CAT_ID":44060,"ELEMENT_SET_NO":999,"REV_AT_EPOCH":32308,"BSTAR":-0.03297672,"MEAN_MOTION_DOT":-0.00012396,"MEAN_MOTION_DDOT":0},{"OBJECT_NAME":"ONEWEB-0006","OBJECT_ID":"2019-010E","EPOCH":"2025-11-14T00:35:35.294784","MEAN_MOTION":13.15548674,"ECCENTRICITY":0.00020923,"INCLINATION":87.8972,"RA_OF_ASC_NODE":302.1085,"ARG_OF_PERICENTER":90.0405,"MEAN_ANOMALY":270.0965,"EPHEMERIS_TYPE":0,"CLASSIFICATION_TYPE":"U","NORAD_CAT_ID":44061,"ELEMENT_SET_NO":999,"REV_AT_EPOCH":32313,"BSTAR":0.00039825708,"MEAN_MOTION_DOT":1.63e-6,"MEAN_MOTION_DDOT":0},{"OBJECT_NAME":"ONEWEB-0011","OBJECT_ID":"2019-010F","EPOCH":"2025-11-13T22:00:24.012576","MEAN_MOTION":13.15546712,"ECCENTRICITY":0.00019996,"INCLINATION":87.8951,"RA_OF_ASC_NODE":302.1409,"ARG_OF_PERICENTER":79.8361,"MEAN_ANOMALY":280.2995,"EPHEMERIS_TYPE":0,"CLASSIFICATION_TYPE":"U","NORAD_CAT_ID":44062,"ELEMENT_SET_NO":999,"REV_AT_EPOCH":32311,"BSTAR":-0.00023109673,"MEAN_MOTION_DOT":-7.4e-7,"MEAN_MOTION_DDOT":0},{"OBJECT_NAME":"ONEWEB-0013","OBJECT_ID":"2020-008A","EPOCH":"2025-11-14T07:13:48.938304","MEAN_MOTION":13.09437384,"ECCENTRICITY":0.00013874,"INCLINATION":87.8483,"RA_OF_ASC_NODE":96.2207,"ARG_OF_PERICENTER":136.6535,"MEAN_ANOMALY":223.4701,"EPHEMERIS_TYPE":0,"CLASSIFICATION_TYPE":"U","NORAD_CAT_ID":45131,"ELEMENT_SET_NO":999,"REV_AT_EPOCH":27794,"BSTAR":0.0022235026,"MEAN_MOTION_DOT":7.78e-6,"MEAN_MOTION_DDOT":0},{"OBJECT_NAME":"ONEWEB-0017","OBJECT_ID":"2020-008B","EPOCH":"2025-11-14T06:46:41.434464","MEAN_MOTION":13.10372738,"ECCENTRICITY":0.00017442,"INCLINATION":87.8795,"RA_OF_ASC_NODE":79.1141,"ARG_OF_PERICENTER":97.2124,"MEAN_ANOMALY":262.9201,"EPHEMERIS_TYPE":0,"CLASSIFICATION_TYPE":"U","NORAD_CAT_ID":45132,"ELEMENT_SET_NO":999,"REV_AT_EPOCH":27980,"BSTAR":-0.0012592216,"MEAN_MOTION_DOT":-4.27e-6,"MEAN_MOTION_DDOT":0},{"OBJECT_NAME":"ONEWEB-0020","OBJECT_ID":"2020-008C","EPOCH":"2025-11-14T07:53:38.536800","MEAN_MOTION":13.10374652,"ECCENTRICITY":0.00014581,"INCLINATION":87.8803,"RA_OF_ASC_NODE":79.0898,"ARG_OF_PERICENTER":94.4382,"MEAN_ANOMALY":265.6911,"EPHEMERIS_TYPE":0,"CLASSIFICATION_TYPE":"U","NORAD_CAT_ID":45133,"ELEMENT_SET_NO":999,"REV_AT_EPOCH":28020,"BSTAR":0.002054819,"MEAN_MOTION_DOT":7.3e-6,"MEAN_MOTION_DDOT":0},{"OBJECT_NAME":"ONEWEB-0021","OBJECT_ID":"2020-008D","EPOCH":"2025-11-14T06:25:12.184032","MEAN_MOTION":13.10371732,"ECCENTRICITY":0.00016099,"INCLINATION":87.8791,"RA_OF_ASC_NODE":79.1336,"ARG_OF_PERICENTER":104.5068,"MEAN_ANOMALY":255.6238,"EPHEMERIS_TYPE":0,"CLASSIFICATION_TYPE":"U","NORAD_CAT_ID":45134,"ELEMENT_SET_NO":999,"REV_AT_EPOCH":28050,"BSTAR":0.00087339013,"MEAN_MOTION_DOT":3.18e-6,"MEAN_MOTION_DDOT":0},{"OBJECT_NAME":"ONEWEB-0023","OBJECT_ID":"2020-008F","EPOCH":"2025-11-14T06:40:43.248576","MEAN_MOTION":13.1037089,"ECCENTRICITY":0.00013117,"INCLINATION":87.8787,"RA_OF_ASC_NODE":79.1131,"ARG_OF_PERICENTER":102.8352,"MEAN_ANOMALY":257.2922,"EPHEMERIS_TYPE":0,"CLASSIFICATION_TYPE":"U","NORAD_CAT_ID":45136,"ELEMENT_SET_NO":999,"REV_AT_EPOCH":27993,"BSTAR":-0.00060052838,"MEAN_MOTION_DOT":-1.97e-6,"MEAN_MOTION_DDOT":0},{"OBJECT_NAME":"ONEWEB-0024","OBJECT_ID":"2020-008G","EPOCH":"2025-11-13T19:01:34.594464","MEAN_MOTION":13.10374421,"ECCENTRICITY":0.00016171,"INCLINATION":87.8813,"RA_OF_ASC_NODE":79.1737,"ARG_OF_PERICENTER":100.2411,"MEAN_ANOMALY":259.8899,"EPHEMERIS_TYPE":0,"CLASSIFICATION_TYPE":"U","NORAD_CAT_ID":45137,"ELEMENT_SET_NO":999,"REV_AT_EPOCH":28003,"BSTAR":0.0020351816,"MEAN_MOTION_DOT":7.23e-6,"MEAN_MOTION_DDOT":0},{"OBJECT_NAME":"ONEWEB-0025","OBJECT_ID":"2020-008H","EPOCH":"2025-11-14T06:26:23.201376","MEAN_MOTION":13.10370155,"ECCENTRICITY":0.00014539,"INCLINATION":87.8802,"RA_OF_ASC_NODE":79.0857,"ARG_OF_PERICENTER":114.0974,"MEAN_ANOMALY":246.0305,"EPHEMERIS_TYPE":0,"CLASSIFICATION_TYPE":"U","NORAD_CAT_ID":45138,"ELEMENT_SET_NO":999,"REV_AT_EPOCH":28042,"BSTAR":0.00087996071,"MEAN_MOTION_DOT":3.2e-6,"MEAN_MOTION_DDOT":0},{"OBJECT_NAME":"ONEWEB-0026","OBJECT_ID":"2020-008J","EPOCH":"2025-11-14T07:21:51.982560","MEAN_MOTION":13.11414022,"ECCENTRICITY":0.00017479,"INCLINATION":87.8868,"RA_OF_ASC_NODE":63.8541,"ARG_OF_PERICENTER":97.5999,"MEAN_ANOMALY":262.5327,"EPHEMERIS_TYPE":0,"CLASSIFICATION_TYPE":"U","NORAD_CAT_ID":45139,"ELEMENT_SET_NO":999,"REV_AT_EPOCH":28294,"BSTAR":7.1068093e-5,"MEAN_MOTION_DOT":3.8e-7,"MEAN_MOTION_DDOT":0},{"OBJECT_NAME":"ONEWEB-0028","OBJECT_ID":"2020-008K","EPOCH":"2025-11-14T06:19:35.845248","MEAN_MOTION":13.11418361,"ECCENTRICITY":0.00015142,"INCLINATION":87.8859,"RA_OF_ASC_NODE":63.8792,"ARG_OF_PERICENTER":127.4137,"MEAN_ANOMALY":232.7129,"EPHEMERIS_TYPE":0,"CLASSIFICATION_TYPE":"U","NORAD_CAT_ID":45140,"ELEMENT_SET_NO":999,"REV_AT_EPOCH":28045,"BSTAR":-0.0014571762,"MEAN_MOTION_DOT":-5.04e-6,"MEAN_MOTION_DDOT":0},{"OBJECT_NAME":"ONEWEB-0032","OBJECT_ID":"2020-008L","EPOCH":"2025-11-14T06:49:04.043712","MEAN_MOTION":13.10373136,"ECCENTRICITY":0.00014827,"INCLINATION":87.8791,"RA_OF_ASC_NODE":79.1131,"ARG_OF_PERICENTER":107.2254,"MEAN_ANOMALY":252.9036,"EPHEMERIS_TYPE":0,"CLASSIFICATION_TYPE":"U","NORAD_CAT_ID":45141,"ELEMENT_SET_NO":999,"REV_AT_EPOCH":28015,"BSTAR":-0.0014029833,"MEAN_MOTION_DOT":-4.77e-6,"MEAN_MOTION_DDOT":0}]
